[Satellite]
VERSION=1.1
NAME=GSAT-15 (GAGAN/PRN 139)
NICKNAME=GSAT-15 (GAGAN/PRN 139)
TLE1=1 41028U 15065A   17185.95369836 -.00000264  00000-0  00000-0 0  9996
TLE2=2 41028   0.0259 280.1317 0002683 152.9283 286.9619  1.00272669  6060
